{"type": "FeatureCollection", "features": [ {"type": "Feature", "properties": {"norad_id": 66568, "name": "STARLINK-35803", "group": "last-30-days", "lat": 36.984859352061, "lon": -112.02239685037833, "alt_km": 410.357650521245, "timestamp": "2025-12-12T14:39:16.771539+00:00", "meta": {"OBJECT_NAME": "STARLINK-35803", "OBJECT_ID": "2025-268M", "EPOCH": "2025-12-12T06:00:00.999648", "MEAN_MOTION": 15.50531504, "ECCENTRICITY": 0.00018175, "INCLINATION": 43.0001, "RA_OF_ASC_NODE": 124.0095, "ARG_OF_PERICENTER": 281.8198, "MEAN_ANOMALY": 340.9368, "EPHEMERIS_TYPE": 0, "CLASSIFICATION_TYPE": "U", "NORAD_CAT_ID": 66568, "ELEMENT_SET_NO": 999, "REV_AT_EPOCH": 459, "BSTAR": 0.00090069479, "MEAN_MOTION_DOT": 0.00052766, "MEAN_MOTION_DDOT": 0}, "tle": {"line1": "1 66568U 25268M   25346.25001157  .00052766  00000+0  90069-3 0  9997", "line2": "2 66568  43.0001 124.0095 0001817 281.8198 340.9368 15.50531504  4596"}}, "geometry": {"type": "Point", "coordinates": [-112.02239685037833, 36.984859352061]}}, {"type": "Feature", "properties": {"norad_id": 66569, "name": "STARLINK-35835", "group": "last-30-days", "lat": 36.18855971603395, "lon": -109.83340474763872, "alt_km": 410.3944426569633, "timestamp": "2025-12-12T14:39:16.771548+00:00", "meta": {"OBJECT_NAME": "STARLINK-35835", "OBJECT_ID": "2025-268N", "EPOCH": "2025-12-12T06:00:00.999648", "MEAN_MOTION": 15.50570082, "ECCENTRICITY": 0.00018223, "INCLINATION": 43, "RA_OF_ASC_NODE": 124.0051, "ARG_OF_PERICENTER": 269.1191, "MEAN_ANOMALY": 355.5506, "EPHEMERIS_TYPE": 0, "CLASSIFICATION_TYPE": "U", "NORAD_CAT_ID": 66569, "ELEMENT_SET_NO": 999, "REV_AT_EPOCH": 459, "BSTAR": -0.00011929378, "MEAN_MOTION_DOT": -7.332e-05, "MEAN_MOTION_DDOT": 0}, "tle": {"line1": "1 66569U 25268N   25346.25001157 -.00007332  00000+0 -11929-3 0  9997", "line2": "2 66569  43.0000 124.0051 0001822 269.1191 355.5506 15.50570082  4596"}}, "geometry": {"type": "Point", "coordinates": [-109.83340474763872, 36.18855971603395]}}, {"type": "Feature", "properties": {"norad_id": 66570, "name": "STARLINK-35834", "group": "last-30-days", "lat": 35.36966758277056, "lon": -107.73127757961633, "alt_km": 410.2376490461511, "timestamp": "2025-12-12T14:39:16.771556+00:00", "meta": {"OBJECT_NAME": "STARLINK-35834", "OBJECT_ID": "2025-268P", "EPOCH": "2025-12-12T06:00:00.999648", "MEAN_MOTION": 15.50532484, "ECCENTRICITY": 0.00015377, "INCLINATION": 43.0001, "RA_OF_ASC_NODE": 123.9998, "ARG_OF_PERICENTER": 261.1182, "MEAN_ANOMALY": 5.4675, "EPHEMERIS_TYPE": 0, "CLASSIFICATION_TYPE": "U", "NORAD_CAT_ID": 66570, "ELEMENT_SET_NO": 999, "REV_AT_EPOCH": 459, "BSTAR": 0.00087130921, "MEAN_MOTION_DOT": 0.00051023, "MEAN_MOTION_DDOT": 0}, "tle": {"line1": "1 66570U 25268P   25346.25001157  .00051023  00000+0  87131-3 0  9991", "line2": "2 66570  43.0001 123.9998 0001537 261.1182   5.4675 15.50532484  4594"}}, "geometry": {"type": "Point", "coordinates": [-107.73127757961633, 35.36966758277056]}}, {"type": "Feature", "properties": {"norad_id": 66571, "name": "STARLINK-35836", "group": "last-30-days", "lat": 34.49488457052163, "lon": -105.62497169233974, "alt_km": 410.529234821679, "timestamp": "2025-12-12T14:39:16.771567+00:00", "meta": {"OBJECT_NAME": "STARLINK-35836", "OBJECT_ID": "2025-268Q", "EPOCH": "2025-12-12T06:00:00.999648", "MEAN_MOTION": 15.50553958, "ECCENTRICITY": 0.00017877, "INCLINATION": 43.0002, "RA_OF_ASC_NODE": 123.9951, "ARG_OF_PERICENTER": 266.3972, "MEAN_ANOMALY": 2.1065, "EPHEMERIS_TYPE": 0, "CLASSIFICATION_TYPE": "U", "NORAD_CAT_ID": 66571, "ELEMENT_SET_NO": 999, "REV_AT_EPOCH": 459, "BSTAR": 0.00056776036, "MEAN_MOTION_DOT": 0.00033077, "MEAN_MOTION_DDOT": 0}, "tle": {"line1": "1 66571U 25268Q   25346.25001157  .00033077  00000+0  56776-3 0  9992", "line2": "2 66571  43.0002 123.9951 0001787 266.3972   2.1065 15.50553958  4592"}}, "geometry": {"type": "Point", "coordinates": [-105.62497169233974, 34.49488457052163]}}, {"type": "Feature", "properties": {"norad_id": 66572, "name": "STARLINK-35870", "group": "last-30-days", "lat": 33.59190740442451, "lon": -103.57914531017191, "alt_km": 410.6292182978559, "timestamp": "2025-12-12T14:39:16.771576+00:00", "meta": {"OBJECT_NAME": "STARLINK-35870", "OBJECT_ID": "2025-268R", "EPOCH": "2025-12-12T06:00:00.999648", "MEAN_MOTION": 15.50553631, "ECCENTRICITY": 0.00016962, "INCLINATION": 43.0001, "RA_OF_ASC_NODE": 123.9912, "ARG_OF_PERICENTER": 269.0669, "MEAN_ANOMALY": 1.3568, "EPHEMERIS_TYPE": 0, "CLASSIFICATION_TYPE": "U", "NORAD_CAT_ID": 66572, "ELEMENT_SET_NO": 999, "REV_AT_EPOCH": 459, "BSTAR": 0.00059691946, "MEAN_MOTION_DOT": 0.00034801, "MEAN_MOTION_DDOT": 0}, "tle": {"line1": "1 66572U 25268R   25346.25001157  .00034801  00000+0  59692-3 0  9999", "line2": "2 66572  43.0001 123.9912 0001696 269.0669   1.3568 15.50553631  4598"}}, "geometry": {"type": "Point", "coordinates": [-103.57914531017191, 33.59190740442451]}}, {"type": "Feature", "properties": {"norad_id": 66573, "name": "STARLINK-35650", "group": "last-30-days", "lat": 32.624493380055924, "lon": -101.51308026984758, "alt_km": 410.72542002952923, "timestamp": "2025-12-12T14:39:16.771585+00:00", "meta": {"OBJECT_NAME": "STARLINK-35650", "OBJECT_ID": "2025-268S", "EPOCH": "2025-12-12T06:00:00.999648", "MEAN_MOTION": 15.50667909, "ECCENTRICITY": 0.00016756, "INCLINATION": 43.0001, "RA_OF_ASC_NODE": 123.9854, "ARG_OF_PERICENTER": 262.5527, "MEAN_ANOMALY": 9.7922, "EPHEMERIS_TYPE": 0, "CLASSIFICATION_TYPE": "U", "NORAD_CAT_ID": 66573, "ELEMENT_SET_NO": 999, "REV_AT_EPOCH": 459, "BSTAR": -0.002427507, "MEAN_MOTION_DOT": -0.00140672, "MEAN_MOTION_DDOT": 0}, "tle": {"line1": "1 66573U 25268S   25346.25001157 -.00140672  00000+0 -24275-2 0  9994", "line2": "2 66573  43.0001 123.9854 0001675 262.5527   9.7922 15.50667909  4592"}}, "geometry": {"type": "Point", "coordinates": [-101.51308026984758, 32.624493380055924]}}, {"type": "Feature", "properties": {"norad_id": 66574, "name": "STARLINK-35812", "group": "last-30-days", "lat": 31.69776686962334, "lon": -99.63723639887014, "alt_km": 410.80615846785713, "timestamp": "2025-12-12T14:39:16.771595+00:00", "meta": {"OBJECT_NAME": "STARLINK-35812", "OBJECT_ID": "2025-268T", "EPOCH": "2025-12-12T06:00:00.999648", "MEAN_MOTION": 15.50525728, "ECCENTRICITY": 0.00015316, "INCLINATION": 43, "RA_OF_ASC_NODE": 123.9804, "ARG_OF_PERICENTER": 267.9839, "MEAN_ANOMALY": 6.2872, "EPHEMERIS_TYPE": 0, "CLASSIFICATION_TYPE": "U", "NORAD_CAT_ID": 66574, "ELEMENT_SET_NO": 999, "REV_AT_EPOCH": 459, "BSTAR": 0.0010946197, "MEAN_MOTION_DOT": 0.00064281, "MEAN_MOTION_DDOT": 0}, "tle": {"line1": "1 66574U 25268T   25346.25001157  .00064281  00000+0  10946-2 0  9994", "line2": "2 66574  43.0000 123.9804 0001531 267.9839   6.2872 15.50525728  4591"}}, "geometry": {"type": "Point", "coordinates": [-99.63723639887014, 31.69776686962334]}}, {"type": "Feature", "properties": {"norad_id": 66575, "name": "STARLINK-35810", "group": "last-30-days", "lat": 30.694009865658018, "lon": -97.70442064600068, "alt_km": 411.013474075924, "timestamp": "2025-12-12T14:39:16.771604+00:00", "meta": {"OBJECT_NAME": "STARLINK-35810", "OBJECT_ID": "2025-268U", "EPOCH": "2025-12-12T06:00:00.999648", "MEAN_MOTION": 15.50567097, "ECCENTRICITY": 0.00015381, "INCLINATION": 43.0001, "RA_OF_ASC_NODE": 123.9758, "ARG_OF_PERICENTER": 270.9336, "MEAN_ANOMALY": 5.2508, "EPHEMERIS_TYPE": 0, "CLASSIFICATION_TYPE": "U", "NORAD_CAT_ID": 66575, "ELEMENT_SET_NO": 999, "REV_AT_EPOCH": 459, "BSTAR": -7.1007993e-05, "MEAN_MOTION_DOT": -4.503e-05, "MEAN_MOTION_DDOT": 0}, "tle": {"line1": "1 66575U 25268U   25346.25001157 -.00004503  00000+0 -71008-4 0  9996", "line2": "2 66575  43.0001 123.9758 0001538 270.9336   5.2508 15.50567097  4594"}}, "geometry": {"type": "Point", "coordinates": [-97.70442064600068, 30.694009865658018]}}, {"type": "Feature", "properties": {"norad_id": 66576, "name": "STARLINK-35814", "group": "last-30-days", "lat": 29.68230905842912, "lon": -95.8490707285208, "alt_km": 411.05324855103026, "timestamp": "2025-12-12T14:39:16.771613+00:00", "meta": {"OBJECT_NAME": "STARLINK-35814", "OBJECT_ID": "2025-268V", "EPOCH": "2025-12-12T06:00:00.999648", "MEAN_MOTION": 15.50524507, "ECCENTRICITY": 0.00014889, "INCLINATION": 43, "RA_OF_ASC_NODE": 123.9707, "ARG_OF_PERICENTER": 267.1355, "MEAN_ANOMALY": 10.9698, "EPHEMERIS_TYPE": 0, "CLASSIFICATION_TYPE": "U", "NORAD_CAT_ID": 66576, "ELEMENT_SET_NO": 999, "REV_AT_EPOCH": 459, "BSTAR": 0.0011380251, "MEAN_MOTION_DOT": 0.00066863, "MEAN_MOTION_DDOT": 0}, "tle": {"line1": "1 66576U 25268V   25346.25001157  .00066863  00000+0  11380-2 0  9997", "line2": "2 66576  43.0000 123.9707 0001488 267.1355  10.9698 15.50524507  4593"}}, "geometry": {"type": "Point", "coordinates": [-95.8490707285208, 29.68230905842912]}}, {"type": "Feature", "properties": {"norad_id": 66577, "name": "STARLINK-35815", "group": "last-30-days", "lat": 28.62561392037417, "lon": -93.99677722980668, "alt_km": 411.3156064313289, "timestamp": "2025-12-12T14:39:16.771623+00:00", "meta": {"OBJECT_NAME": "STARLINK-35815", "OBJECT_ID": "2025-268W", "EPOCH": "2025-12-12T06:00:00.999648", "MEAN_MOTION": 15.50567826, "ECCENTRICITY": 0.00015862, "INCLINATION": 43.0001, "RA_OF_ASC_NODE": 123.9663, "ARG_OF_PERICENTER": 268.9495, "MEAN_ANOMALY": 11.07, "EPHEMERIS_TYPE": 0, "CLASSIFICATION_TYPE": "U", "NORAD_CAT_ID": 66577, "ELEMENT_SET_NO": 999, "REV_AT_EPOCH": 459, "BSTAR": -0.00019021599, "MEAN_MOTION_DOT": -0.0001148, "MEAN_MOTION_DDOT": 0}, "tle": {"line1": "1 66577U 25268W   25346.25001157 -.00011480  00000+0 -19022-3 0  9997", "line2": "2 66577  43.0001 123.9663 0001586 268.9495  11.0700 15.50567826  4596"}}, "geometry": {"type": "Point", "coordinates": [-93.99677722980668, 28.62561392037417]}}]}